{"type": "FeatureCollection", "features": [ {"type": "Feature", "properties": {"norad_id": 31243, "name": "FENGYUN 1C DEB", "group": "fengyun-1c-debris", "lat": 25.72832495799292, "lon": -155.7688697863001, "alt_km": 828.8264710194708, "timestamp": "2025-12-05T11:32:56.299848+00:00", "meta": {"OBJECT_NAME": "FENGYUN 1C DEB", "OBJECT_ID": "1999-025BLZ", "EPOCH": "2025-12-02T09:26:08.464128", "MEAN_MOTION": 14.07125765, "ECCENTRICITY": 0.00658053, "INCLINATION": 98.7507, "RA_OF_ASC_NODE": 16.9856, "ARG_OF_PERICENTER": 196.9794, "MEAN_ANOMALY": 162.9174, "EPHEMERIS_TYPE": 0, "CLASSIFICATION_TYPE": "U", "NORAD_CAT_ID": 31243, "ELEMENT_SET_NO": 999, "REV_AT_EPOCH": 69162, "BSTAR": 0.0010846711, "MEAN_MOTION_DOT": 1.809e-05, "MEAN_MOTION_DDOT": 0}, "tle": {"line1": "1 31243U 99025BLZ 25336.39315352  .00001809  00000+0  10847-2 0  9997", "line2": "2 31243  98.7507  16.9856 0065805 196.9794 162.9174 14.07125765691627"}}, "geometry": {"type": "Point", "coordinates": [-155.7688697863001, 25.72832495799292]}}, {"type": "Feature", "properties": {"norad_id": 31244, "name": "FENGYUN 1C DEB", "group": "fengyun-1c-debris", "lat": -21.324100202769056, "lon": -140.4462307912837, "alt_km": 803.7273322539158, "timestamp": "2025-12-05T11:32:56.299858+00:00", "meta": {"OBJECT_NAME": "FENGYUN 1C DEB", "OBJECT_ID": "1999-025BMA", "EPOCH": "2025-11-29T11:08:59.157312", "MEAN_MOTION": 14.06218558, "ECCENTRICITY": 0.01023846, "INCLINATION": 99.0353, "RA_OF_ASC_NODE": 37.1115, "ARG_OF_PERICENTER": 211.8178, "MEAN_ANOMALY": 147.6779, "EPHEMERIS_TYPE": 0, "CLASSIFICATION_TYPE": "U", "NORAD_CAT_ID": 31244, "ELEMENT_SET_NO": 999, "REV_AT_EPOCH": 57453, "BSTAR": 0.00052742349, "MEAN_MOTION_DOT": 8.65e-06, "MEAN_MOTION_DDOT": 0}, "tle": {"line1": "1 31244U 99025BMA 25333.46457358  .00000865  00000+0  52742-3 0  9998", "line2": "2 31244  99.0353  37.1115 0102384 211.8178 147.6779 14.06218558574534"}}, "geometry": {"type": "Point", "coordinates": [-140.4462307912837, -21.324100202769056]}}, {"type": "Feature", "properties": {"norad_id": 31247, "name": "FENGYUN 1C DEB", "group": "fengyun-1c-debris", "lat": 16.499651053788796, "lon": 50.228345654838776, "alt_km": 869.789986464396, "timestamp": "2025-12-05T11:32:56.299869+00:00", "meta": {"OBJECT_NAME": "FENGYUN 1C DEB", "OBJECT_ID": "1999-025BMD", "EPOCH": "2025-12-04T16:15:04.494240", "MEAN_MOTION": 14.05083415, "ECCENTRICITY": 0.0058704, "INCLINATION": 99.3657, "RA_OF_ASC_NODE": 226.5966, "ARG_OF_PERICENTER": 84.4235, "MEAN_ANOMALY": 333.0455, "EPHEMERIS_TYPE": 0, "CLASSIFICATION_TYPE": "U", "NORAD_CAT_ID": 31247, "ELEMENT_SET_NO": 999, "REV_AT_EPOCH": 95408, "BSTAR": 0.0019039, "MEAN_MOTION_DOT": 3.071e-05, "MEAN_MOTION_DDOT": 0}, "tle": {"line1": "1 31247U 99025BMD 25338.67713535  .00003071  00000+0  19039-2 0  9994", "line2": "2 31247  99.3657 226.5966 0058704  84.4235 333.0455 14.05083415954084"}}, "geometry": {"type": "Point", "coordinates": [50.228345654838776, 16.499651053788796]}}, {"type": "Feature", "properties": {"norad_id": 31248, "name": "FENGYUN 1C DEB", "group": "fengyun-1c-debris", "lat": -21.991226482267955, "lon": 40.71588963910001, "alt_km": 844.605685566863, "timestamp": "2025-12-05T11:32:56.299880+00:00", "meta": {"OBJECT_NAME": "FENGYUN 1C DEB", "OBJECT_ID": "1999-025BME", "EPOCH": "2025-12-02T02:45:39.580416", "MEAN_MOTION": 13.92758198, "ECCENTRICITY": 0.0109757, "INCLINATION": 99.2654, "RA_OF_ASC_NODE": 33.5687, "ARG_OF_PERICENTER": 340.39, "MEAN_ANOMALY": 48.6423, "EPHEMERIS_TYPE": 0, "CLASSIFICATION_TYPE": "U", "NORAD_CAT_ID": 31248, "ELEMENT_SET_NO": 999, "REV_AT_EPOCH": 94676, "BSTAR": 0.00064820906, "MEAN_MOTION_DOT": 8.36e-06, "MEAN_MOTION_DDOT": 0}, "tle": {"line1": "1 31248U 99025BME 25336.11504144  .00000836  00000+0  64821-3 0  9992", "line2": "2 31248  99.2654  33.5687 0109757 340.3900  48.6423 13.92758198946767"}}, "geometry": {"type": "Point", "coordinates": [40.71588963910001, -21.991226482267955]}}, {"type": "Feature", "properties": {"norad_id": 31250, "name": "FENGYUN 1C DEB", "group": "fengyun-1c-debris", "lat": -75.99544607654374, "lon": -26.20099079543806, "alt_km": 840.0929334129651, "timestamp": "2025-12-05T11:32:56.299890+00:00", "meta": {"OBJECT_NAME": "FENGYUN 1C DEB", "OBJECT_ID": "1999-025BMG", "EPOCH": "2025-11-27T20:53:06.321984", "MEAN_MOTION": 14.02996088, "ECCENTRICITY": 0.01342537, "INCLINATION": 98.3888, "RA_OF_ASC_NODE": 183.0534, "ARG_OF_PERICENTER": 339.6638, "MEAN_ANOMALY": 19.9213, "EPHEMERIS_TYPE": 0, "CLASSIFICATION_TYPE": "U", "NORAD_CAT_ID": 31250, "ELEMENT_SET_NO": 999, "REV_AT_EPOCH": 95309, "BSTAR": 0.0013427936, "MEAN_MOTION_DOT": 2.218e-05, "MEAN_MOTION_DDOT": 0}, "tle": {"line1": "1 31250U 99025BMG 25331.87021206  .00002218  00000+0  13428-2 0  9998", "line2": "2 31250  98.3888 183.0534 0134253 339.6638  19.9213 14.02996088953095"}}, "geometry": {"type": "Point", "coordinates": [-26.20099079543806, -75.99544607654374]}}, {"type": "Feature", "properties": {"norad_id": 31252, "name": "FENGYUN 1C DEB", "group": "fengyun-1c-debris", "lat": 66.0178694490566, "lon": -20.67251482068597, "alt_km": 840.2807128730738, "timestamp": "2025-12-05T11:32:56.299901+00:00", "meta": {"OBJECT_NAME": "FENGYUN 1C DEB", "OBJECT_ID": "1999-025BMJ", "EPOCH": "2025-12-03T19:12:16.624224", "MEAN_MOTION": 14.40130868, "ECCENTRICITY": 0.0213315, "INCLINATION": 98.3178, "RA_OF_ASC_NODE": 356.8928, "ARG_OF_PERICENTER": 199.1553, "MEAN_ANOMALY": 160.1527, "EPHEMERIS_TYPE": 0, "CLASSIFICATION_TYPE": "U", "NORAD_CAT_ID": 31252, "ELEMENT_SET_NO": 999, "REV_AT_EPOCH": 97078, "BSTAR": 0.00079613, "MEAN_MOTION_DOT": 3.239e-05, "MEAN_MOTION_DDOT": 0}, "tle": {"line1": "1 31252U 99025BMJ 25337.80019241  .00003239  00000+0  79613-3 0  9998", "line2": "2 31252  98.3178 356.8928 0213315 199.1553 160.1527 14.40130868970788"}}, "geometry": {"type": "Point", "coordinates": [-20.67251482068597, 66.0178694490566]}}, {"type": "Feature", "properties": {"norad_id": 31253, "name": "FENGYUN 1C DEB", "group": "fengyun-1c-debris", "lat": 52.98295661758753, "lon": 32.26457826983948, "alt_km": 757.0693946837673, "timestamp": "2025-12-05T11:32:56.299911+00:00", "meta": {"OBJECT_NAME": "FENGYUN 1C DEB", "OBJECT_ID": "1999-025BMK", "EPOCH": "2025-12-03T09:40:45.297984", "MEAN_MOTION": 14.03577789, "ECCENTRICITY": 0.02905849, "INCLINATION": 99.0777, "RA_OF_ASC_NODE": 42.429, "ARG_OF_PERICENTER": 116.7356, "MEAN_ANOMALY": 246.3862, "EPHEMERIS_TYPE": 0, "CLASSIFICATION_TYPE": "U", "NORAD_CAT_ID": 31253, "ELEMENT_SET_NO": 999, "REV_AT_EPOCH": 68867, "BSTAR": 0.00066608473, "MEAN_MOTION_DOT": 1.476e-05, "MEAN_MOTION_DDOT": 0}, "tle": {"line1": "1 31253U 99025BMK 25337.40330206  .00001476  00000+0  66608-3 0  9993", "line2": "2 31253  99.0777  42.4290 0290584 116.7356 246.3862 14.03577789688670"}}, "geometry": {"type": "Point", "coordinates": [32.26457826983948, 52.98295661758753]}}, {"type": "Feature", "properties": {"norad_id": 31254, "name": "FENGYUN 1C DEB", "group": "fengyun-1c-debris", "lat": -20.56714771710775, "lon": 32.499590396975194, "alt_km": 820.9180942276307, "timestamp": "2025-12-05T11:32:56.299921+00:00", "meta": {"OBJECT_NAME": "FENGYUN 1C DEB", "OBJECT_ID": "1999-025BML", "EPOCH": "2025-11-27T22:14:27.134880", "MEAN_MOTION": 14.36276197, "ECCENTRICITY": 0.0150752, "INCLINATION": 98.4636, "RA_OF_ASC_NODE": 21.8734, "ARG_OF_PERICENTER": 246.3529, "MEAN_ANOMALY": 292.2282, "EPHEMERIS_TYPE": 0, "CLASSIFICATION_TYPE": "U", "NORAD_CAT_ID": 31254, "ELEMENT_SET_NO": 999, "REV_AT_EPOCH": 97303, "BSTAR": 0.00058845, "MEAN_MOTION_DOT": 1.909e-05, "MEAN_MOTION_DDOT": 0}, "tle": {"line1": "1 31254U 99025BML 25331.92670295  .00001909  00000+0  58845-3 0  9995", "line2": "2 31254  98.4636  21.8734 0150752 246.3529 292.2282 14.36276197973034"}}, "geometry": {"type": "Point", "coordinates": [32.499590396975194, -20.56714771710775]}}, {"type": "Feature", "properties": {"norad_id": 31255, "name": "FENGYUN 1C DEB", "group": "fengyun-1c-debris", "lat": -48.24286543276449, "lon": -34.278769548920344, "alt_km": 1002.3852249791335, "timestamp": "2025-12-05T11:32:56.299931+00:00", "meta": {"OBJECT_NAME": "FENGYUN 1C DEB", "OBJECT_ID": "1999-025BMM", "EPOCH": "2025-12-04T10:36:33.005088", "MEAN_MOTION": 14.09712066, "ECCENTRICITY": 0.0270999, "INCLINATION": 99.3086, "RA_OF_ASC_NODE": 155.232, "ARG_OF_PERICENTER": 6.6162, "MEAN_ANOMALY": 353.8471, "EPHEMERIS_TYPE": 0, "CLASSIFICATION_TYPE": "U", "NORAD_CAT_ID": 31255, "ELEMENT_SET_NO": 999, "REV_AT_EPOCH": 96684, "BSTAR": 0.00045056, "MEAN_MOTION_DOT": 1.06e-05, "MEAN_MOTION_DDOT": 0}, "tle": {"line1": "1 31255U 99025BMM 25338.44204867  .00001060  00000+0  45056-3 0  9996", "line2": "2 31255  99.3086 155.2320 0270999   6.6162 353.8471 14.09712066966848"}}, "geometry": {"type": "Point", "coordinates": [-34.278769548920344, -48.24286543276449]}}, {"type": "Feature", "properties": {"norad_id": 31256, "name": "FENGYUN 1C DEB", "group": "fengyun-1c-debris", "lat": -80.92353773528068, "lon": -99.46514071179062, "alt_km": 1053.771361444381, "timestamp": "2025-12-05T11:32:56.299941+00:00", "meta": {"OBJECT_NAME": "FENGYUN 1C DEB", "OBJECT_ID": "1999-025BMN", "EPOCH": "2025-12-03T08:38:37.232160", "MEAN_MOTION": 14.03080392, "ECCENTRICITY": 0.03081552, "INCLINATION": 98.6841, "RA_OF_ASC_NODE": 185.432, "ARG_OF_PERICENTER": 140.4727, "MEAN_ANOMALY": 221.936, "EPHEMERIS_TYPE": 0, "CLASSIFICATION_TYPE": "U", "NORAD_CAT_ID": 31256, "ELEMENT_SET_NO": 999, "REV_AT_EPOCH": 64850, "BSTAR": 0.0040356477, "MEAN_MOTION_DOT": 9.524e-05, "MEAN_MOTION_DDOT": 0}, "tle": {"line1": "1 31256U 99025BMN 25337.36015315  .00009524  00000+0  40356-2 0  9995", "line2": "2 31256  98.6841 185.4320 0308155 140.4727 221.9360 14.03080392648501"}}, "geometry": {"type": "Point", "coordinates": [-99.46514071179062, -80.92353773528068]}}]}